$$SOE
2460728.500000000, A.D. 2025-Feb-22 00:00:00.0000, 2.497963751867177E+08, 3.710923545078809E+08, -4.076634461421882E+07,
2460735.500000000, A.D. 2025-Mar-01 00:00:00.0000, 2.412558537452578E+08, 3.761492979879719E+08, -4.089307789047617E+07,
2460742.500000000, A.D. 2025-Mar-08 00:00:00.0000, 2.325856326979752E+08, 3.810043286881742E+08, -4.099781893726987E+07,
2460749.500000000, A.D. 2025-Mar-15 00:00:00.0000, 2.237899768346400E+08, 3.856541970193818E+08, -4.108044130140108E+07,
2460756.500000000, A.D. 2025-Mar-22 00:00:00.0000, 2.148732281526421E+08, 3.900957172860066E+08, -4.114082639450034E+07,
2460763.500000000, A.D. 2025-Mar-29 00:00:00.0000, 2.058398054954512E+08, 3.943257673789923E+08, -4.117886370953232E+07,
2460770.500000000, A.D. 2025-Apr-05 00:00:00.0000, 1.966942058838791E+08, 3.983412894410338E+08, -4.119445112771867E+07,
2460777.500000000, A.D. 2025-Apr-12 00:00:00.0000, 1.874410056100206E+08, 4.021392916088790E+08, -4.118749513091800E+07,
2460784.500000000, A.D. 2025-Apr-19 00:00:00.0000, 1.780848609017783E+08, 4.057168499534566E+08, -4.115791097446835E+07,
2460791.500000000, A.D. 2025-Apr-26 00:00:00.0000, 1.686305084250611E+08, 4.090711104174847E+08, -4.110562286226785E+07,
2460798.500000000, A.D. 2025-May-03 00:00:00.0000, 1.590827657327507E+08, 4.121992907723516E+08, -4.103056413320024E+07,
2460805.500000000, A.D. 2025-May-10 00:00:00.0000, 1.494465316842237E+08, 4.150986826053815E+08, -4.093267746099979E+07,
2460812.500000000, A.D. 2025-May-17 00:00:00.0000, 1.397267868670526E+08, 4.177666532987436E+08, -4.081191507437523E+07,
2460819.500000000, A.D. 2025-May-24 00:00:00.0000, 1.299285941893446E+08, 4.202006479478524E+08, -4.066823901782915E+07,
2460826.500000000, A.D. 2025-May-31 00:00:00.0000, 1.200571000548874E+08, 4.223981915330220E+08, -4.050162146616946E+07,
2460833.500000000, A.D. 2025-Jun-07 00:00:00.0000, 1.101175357153277E+08, 4.243568925519813E+08, -4.031204495773959E+07,
2460840.500000000, A.D. 2025-Jun-14 00:00:00.0000, 1.001152164297180E+08, 4.260744474460542E+08, -4.009950238370736E+07,
2460847.500000000, A.D. 2025-Jun-21 00:00:00.0000, 9.005553963943617E+07, 4.275486425481469E+08, -3.986399711141184E+07,
2460854.500000000, A.D. 2025-Jun-28 00:00:00.0000, 7.994398527917480E+07, 4.287773553219410E+08, -3.960554338465193E+07,
2460861.500000000, A.D. 2025-Jul-05 00:00:00.0000, 6.978611670229466E+07, 4.297585570512038E+08, -3.932416668584482E+07,
2460868.500000000, A.D. 2025-Jul-12 00:00:00.0000, 5.958758102258827E+07, 4.304903161735687E+08, -3.901990401613796E+07,
2460875.500000000, A.D. 2025-Jul-19 00:00:00.0000, 4.935410905397198E+07, 4.309708016840834E+08, -3.869280415734001E+07,
2460882.500000000, A.D. 2025-Jul-26 00:00:00.0000, 3.909151504991885E+07, 4.311982865527545E+08, -3.834292793912773E+07,
2460889.500000000, A.D. 2025-Aug-02 00:00:00.0000, 2.880569629976259E+07, 4.311711511784602E+08, -3.797034851533501E+07,
2460896.500000000, A.D. 2025-Aug-09 00:00:00.0000, 1.850263259681872E+07, 4.308878868651801E+08, -3.757515165220352E+07,
2460903.500000000, A.D. 2025-Aug-16 00:00:00.0000, 8.188385646613128E+06, 4.303470992577281E+08, -3.715743604031174E+07,
2460910.500000000, A.D. 2025-Aug-23 00:00:00.0000, -2.130901300929828E+06, 4.295475117536725E+08, -3.671731365512854E+07,
2460917.500000000, A.D. 2025-Aug-30 00:00:00.0000, -1.244900327506072E+07, 4.284879696057329E+08, -3.625491013752598E+07,
2460924.500000000, A.D. 2025-Sep-06 00:00:00.0000, -2.275961428892408E+07, 4.271674457144870E+08, -3.577036498201746E+07,
2460931.500000000, A.D. 2025-Sep-13 00:00:00.0000, -3.305635060263478E+07, 4.255850456226419E+08, -3.526383158095159E+07,
2460938.500000000, A.D. 2025-Sep-20 00:00:00.0000, -4.333275328299504E+07, 4.237400100579894E+08, -3.473547755689703E+07,
2460945.500000000, A.D. 2025-Sep-27 00:00:00.0000, -5.358228901468271E+07, 4.216317181342166E+08, -3.418548522500280E+07,
2460952.500000000, A.D. 2025-Oct-04 00:00:00.0000, -6.379835119072998E+07, 4.192596917466812E+08, -3.361405195571885E+07,
2460959.500000000, A.D. 2025-Oct-11 00:00:00.0000, -7.397426166740943E+07, 4.166236002168207E+08, -3.302139047993489E+07,
2460966.500000000, A.D. 2025-Oct-18 00:00:00.0000, -8.410327291088296E+07, 4.137232649080333E+08, -3.240772918452871E+07,
2460973.500000000, A.D. 2025-Oct-25 00:00:00.0000, -9.417857040599923E+07, 4.105586638203877E+08, -3.177331240980864E+07,
2460980.500000000, A.D. 2025-Nov-01 00:00:00.0000, -1.041932752973862E+08, 4.071299361740253E+08, -3.111840075055571E+07,
2460987.500000000, A.D. 2025-Nov-08 00:00:00.0000, -1.141404472382356E+08, 4.034373869423487E+08, -3.044327136552227E+07,
2460994.500000000, A.D. 2025-Nov-15 00:00:00.0000, -1.240130873094392E+08, 3.994814912675287E+08, -2.974821831270757E+07,
2461001.500000000, A.D. 2025-Nov-22 00:00:00.0000, -1.338041406175810E+08, 3.952628989685537E+08, -2.903355292827353E+07,
2461008.500000000, A.D. 2025-Nov-29 00:00:00.0000, -1.435064987369707E+08, 3.907824402670506E+08, -2.829960414137968E+07,
2461015.500000000, A.D. 2025-Dec-06 00:00:00.0000, -1.531130042840775E+08, 3.860411325857709E+08, -2.754671852654994E+07,
2461022.500000000, A.D. 2025-Dec-13 00:00:00.0000, -1.626164571988029E+08, 3.810401850358509E+08, -2.677526040728824E+07,
2461029.500000000, A.D. 2025-Dec-20 00:00:00.0000, -1.720096192508011E+08, 3.757810015989159E+08, -2.598561224556196E+07,
2461036.500000000, A.D. 2025-Dec-27 00:00:00.0000, -1.812852178577732E+08, 3.702651855834410E+08, -2.517817500597404E+07,
2461043.500000000, A.D. 2026-Jan-03 00:00:00.0000, -1.904359506838360E+08, 3.644945447271290E+08, -2.435336840999493E+07,
2461050.500000000, A.D. 2026-Jan-10 00:00:00.0000, -1.994544909158491E+08, 3.584710962496292E+08, -2.351163114387190E+07,
2461057.500000000, A.D. 2026-Jan-17 00:00:00.0000, -2.083334929928517E+08, 3.521970717455730E+08, -2.265342104687859E+07,
2461064.500000000, A.D. 2026-Jan-24 00:00:00.0000, -2.170655987178711E+08, 3.456749219208432E+08, -2.177921528296906E+07,
2461071.500000000, A.D. 2026-Jan-31 00:00:00.0000, -2.256434437353625E+08, 3.389073211433393E+08, -2.088951049629076E+07,
2461078.500000000, A.D. 2026-Feb-07 00:00:00.0000, -2.340596643192381E+08, 3.318971717281488E+08, -1.998482295855860E+07,
2461085.500000000, A.D. 2026-Feb-14 00:00:00.0000, -2.423069042246913E+08, 3.246476079181027E+08, -1.906568873048002E+07,
2461092.500000000, A.D. 2026-Feb-21 00:00:00.0000, -2.503778212222275E+08, 3.171620001124488E+08, -1.813266382342672E+07,
2461099.500000000, A.D. 2026-Feb-28 00:00:00.0000, -2.582650944046637E+08, 3.094439604733005E+08, -1.718632416566542E+07,
2461106.500000000, A.D. 2026-Mar-07 00:00:00.0000, -2.659614343292468E+08, 3.014973479376166E+08, -1.622726534203734E+07,
2461113.500000000, A.D. 2026-Mar-14 00:00:00.0000, -2.734595932161549E+08, 2.933262702757452E+08, -1.525610254968806E+07,
2461120.500000000, A.D. 2026-Mar-21 00:00:00.0000, -2.807523734175391E+08, 2.849350860625052E+08, -1.427347069331758E+07,
2461127.500000000, A.D. 2026-Mar-28 00:00:00.0000, -2.878326361661373E+08, 2.763284075608911E+08, -1.328002434944925E+07,
2461134.500000000, A.D. 2026-Apr-04 00:00:00.0000, -2.946933112020314E+08, 2.675111035250632E+08, -1.227643762107810E+07,
2461141.500000000, A.D. 2026-Apr-11 00:00:00.0000, -3.013274069947191E+08, 2.584883015317193E+08, -1.126340393451232E+07,
2461148.500000000, A.D. 2026-Apr-18 00:00:00.0000, -3.077280213907757E+08, 2.492653898007485E+08, -1.024163579083590E+07,
2461155.500000000, A.D. 2026-Apr-25 00:00:00.0000, -3.138883526290349E+08, 2.398480184874294E+08, -9.211864472443342E+06,
2461162.500000000, A.D. 2026-May-02 00:00:00.0000, -3.198017106780038E+08, 2.302421003844215E+08, -8.174839707497463E+06,
2461169.500000000, A.D. 2026-May-09 00:00:00.0000, -3.254615287534333E+08, 2.204538109357494E+08, -7.131329306908503E+06,
2461176.500000000, A.D. 2026-May-16 00:00:00.0000, -3.308613746169161E+08, 2.104895876701089E+08, -6.082118795039639E+06,
2461183.500000000, A.D. 2026-May-23 00:00:00.0000, -3.359949615782349E+08, 2.003561300448709E+08, -5.028010953234255E+06,
2461190.500000000, A.D. 2026-May-30 00:00:00.0000, -3.408561612513912E+08, 1.900603999892152E+08, -3.969825057529636E+06,
2461197.500000000, A.D. 2026-Jun-06 00:00:00.0000, -3.454390183500748E+08, 1.796096198429761E+08, -2.908396047378838E+06,
2461204.500000000, A.D. 2026-Jun-13 00:00:00.0000, -3.497377638183329E+08, 1.690112678586557E+08, -1.844573943477966E+06,
2461211.500000000, A.D. 2026-Jun-20 00:00:00.0000, -3.537468267595413E+08, 1.582730741579143E+08, -7.792232282444686E+05,
2461218.500000000, A.D. 2026-Jun-27 00:00:00.0000, -3.574608468302038E+08, 1.474030167743611E+08, 2.867779388796240E+05,
2461225.500000000, A.D. 2026-Jul-04 00:00:00.0000, -3.608746870632786E+08, 1.364093169880938E+08, 1.352538607416205E+06,
2461232.500000000, A.D. 2026-Jul-11 00:00:00.0000, -3.639834468238080E+08, 1.253004338031175E+08, 2.417155988785058E+06,
2461239.500000000, A.D. 2026-Jul-18 00:00:00.0000, -3.667824747554970E+08, 1.140850575771552E+08, 3.479716469503142E+06,
2461246.500000000, A.D. 2026-Jul-25 00:00:00.0000, -3.692673816418697E+08, 1.027721027918632E+08, 4.539296682098627E+06,
2461253.500000000, A.D. 2026-Aug-01 00:00:00.0000, -3.714340530796573E+08, 9.137069990320945E+07, 5.594964624501947E+06,
2461260.500000000, A.D. 2026-Aug-08 00:00:00.0000, -3.732786616933073E+08, 7.989018622748215E+07, 6.645780803984091E+06,
2461267.500000000, A.D. 2026-Aug-15 00:00:00.0000, -3.747976784173453E+08, 6.834009630863272E+07, 7.690799402683828E+06,
2461274.500000000, A.D. 2026-Aug-22 00:00:00.0000, -3.759878835478457E+08, 5.673015298740690E+07, 8.729069632159799E+06,
2461281.500000000, A.D. 2026-Aug-29 00:00:00.0000, -3.768463797933491E+08, 4.507025780299582E+07, 9.759637371963238E+06,
2461288.500000000, A.D. 2026-Sep-05 00:00:00.0000, -3.773706051341299E+08, 3.337047786974214E+07, 1.078154665902421E+07,
2461295.500000000, A.D. 2026-Sep-12 00:00:00.0000, -3.775583429718484E+08, 2.164103174202199E+07, 1.179384100352539E+07,
$$EOE